start=new Date('2022-12-06T00:00:00.000Z').valueOf();
sats=[{"SEMIMAJOR_AXIS":"6925.363","ARG_OF_PERICENTER":"75.2331","MEAN_ANOMALY":"284.8842","OBJECT_ID":"2021-040S","BSTAR":"0.00004558000000","MEAN_MOTION":"15.06395322","PERIAPSIS":"546.079","OBJECT_NAME":"STARLINK-2645","REF_FRAME":"TEME","MEAN_MOTION_DDOT":"0.0000000000000","PERIOD":"95.592","ECCENTRICITY":"0.00016590","MEAN_ELEMENT_THEORY":"SGP4","MEAN_MOTION_DOT":"0.00000397","NORAD_CAT_ID":"48444","CENTER_NAME":"EARTH","CLASSIFICATION_TYPE":"U","RA_OF_ASC_NODE":"124.1369","TLE_LINE2":"2 48444  53.0549 124.1369 0001659  75.2331 284.8842 15.06395322 87254","DECAY_DATE":null,"EPHEMERIS_TYPE":"0","INCLINATION":"53.0549","APOAPSIS":"548.377","EPOCH":"2022-12-05T14:27:13.452192","REV_AT_EPOCH":"8725","TLE_LINE1":"1 48444U 21040S   22339.60223903  .00000397  00000-0  45580-4 0  9990","COUNTRY_CODE":"US","OBJECT_TYPE":"PAYLOAD","GP_ID":"219625098","LAUNCH_DATE":"2021-05-09","RCS_SIZE":"LARGE","FILE":"3682465","TIME_SYSTEM":"UTC","ELEMENT_SET_NO":"999","SITE":"AFETR"},{"BSTAR":"0.00026588000000","MEAN_MOTION":"15.06403860","OBJECT_ID":"2021-040T","PERIOD":"95.592","OBJECT_NAME":"STARLINK-2634","PERIAPSIS":"545.856","MEAN_MOTION_DDOT":"0.0000000000000","REF_FRAME":"TEME","SEMIMAJOR_AXIS":"6925.337","MEAN_ANOMALY":"301.0393","ARG_OF_PERICENTER":"59.0787","CENTER_NAME":"EARTH","CLASSIFICATION_TYPE":"U","RA_OF_ASC_NODE":"124.1475","TLE_LINE2":"2 48445  53.0531 124.1475 0001943  59.0787 301.0393 15.06403860 87255","ECCENTRICITY":"0.00019430","NORAD_CAT_ID":"48445","MEAN_ELEMENT_THEORY":"SGP4","MEAN_MOTION_DOT":"0.00003681","EPOCH":"2022-12-05T14:21:53.602848","COUNTRY_CODE":"US","TLE_LINE1":"1 48445U 21040T   22339.59853707  .00003681  00000-0  26588-3 0  9995","REV_AT_EPOCH":"8725","DECAY_DATE":null,"INCLINATION":"53.0531","EPHEMERIS_TYPE":"0","APOAPSIS":"548.547","FILE":"3682465","SITE":"AFETR","ELEMENT_SET_NO":"999","TIME_SYSTEM":"UTC","GP_ID":"219625845","OBJECT_TYPE":"PAYLOAD","LAUNCH_DATE":"2021-05-09","RCS_SIZE":"LARGE"},{"OBJECT_TYPE":"PAYLOAD","GP_ID":"219626094","LAUNCH_DATE":"2021-05-09","RCS_SIZE":"LARGE","FILE":"3682465","TIME_SYSTEM":"UTC","SITE":"AFETR","ELEMENT_SET_NO":"999","DECAY_DATE":null,"INCLINATION":"53.0524","EPHEMERIS_TYPE":"0","APOAPSIS":"548.257","EPOCH":"2022-12-05T19:03:12.127968","TLE_LINE1":"1 48446U 21040U   22339.79389037 -.00000531  00000-0 -16757-4 0  9999","COUNTRY_CODE":"US","REV_AT_EPOCH":"8728","ECCENTRICITY":"0.00015340","MEAN_ELEMENT_THEORY":"SGP4","MEAN_MOTION_DOT":"-0.00000531","NORAD_CAT_ID":"48446","CENTER_NAME":"EARTH","CLASSIFICATION_TYPE":"U","RA_OF_ASC_NODE":"123.2762","TLE_LINE2":"2 48446  53.0524 123.2762 0001534  69.5480 290.5673 15.06406191 87285","SEMIMAJOR_AXIS":"6925.330","ARG_OF_PERICENTER":"69.5480","MEAN_ANOMALY":"290.5673","OBJECT_ID":"2021-040U","BSTAR":"-0.00001675700000","MEAN_MOTION":"15.06406191","PERIAPSIS":"546.132","OBJECT_NAME":"STARLINK-2247","REF_FRAME":"TEME","MEAN_MOTION_DDOT":"0.0000000000000","PERIOD":"95.592"},{"TLE_LINE1":"1 48447U 21040V   22339.79021185  .00001137  00000-0  95240-4 0  9992","REV_AT_EPOCH":"8728","COUNTRY_CODE":"US","EPOCH":"2022-12-05T18:57:54.303840","APOAPSIS":"548.519","INCLINATION":"53.0554","EPHEMERIS_TYPE":"0","DECAY_DATE":null,"SITE":"AFETR","ELEMENT_SET_NO":"999","TIME_SYSTEM":"UTC","FILE":"3682465","RCS_SIZE":"LARGE","LAUNCH_DATE":"2021-05-09","GP_ID":"219624848","OBJECT_TYPE":"PAYLOAD","PERIOD":"95.592","REF_FRAME":"TEME","MEAN_MOTION_DDOT":"0.0000000000000","PERIAPSIS":"545.886","OBJECT_NAME":"STARLINK-2269","MEAN_MOTION":"15.06403622","BSTAR":"0.00009524000000","OBJECT_ID":"2021-040V","MEAN_ANOMALY":"297.1478","ARG_OF_PERICENTER":"62.9705","SEMIMAJOR_AXIS":"6925.337","TLE_LINE2":"2 48447  53.0554 123.2982 0001901  62.9705 297.1478 15.06403622 87280","RA_OF_ASC_NODE":"123.2982","CLASSIFICATION_TYPE":"U","CENTER_NAME":"EARTH","NORAD_CAT_ID":"48447","MEAN_MOTION_DOT":"0.00001137","MEAN_ELEMENT_THEORY":"SGP4","ECCENTRICITY":"0.00019010"},{"MEAN_ANOMALY":"294.5548","ARG_OF_PERICENTER":"65.5645","SEMIMAJOR_AXIS":"6925.336","PERIOD":"95.592","REF_FRAME":"TEME","MEAN_MOTION_DDOT":"0.0000000000000","PERIAPSIS":"545.847","OBJECT_NAME":"STARLINK-2632","MEAN_MOTION":"15.06403954","BSTAR":"-0.00007833800000","OBJECT_ID":"2021-040W","NORAD_CAT_ID":"48448","MEAN_MOTION_DOT":"-0.00001448","MEAN_ELEMENT_THEORY":"SGP4","ECCENTRICITY":"0.00019560","TLE_LINE2":"2 48448  53.0558 123.1781 0001956  65.5645 294.5548 15.06403954 87280","RA_OF_ASC_NODE":"123.1781","CLASSIFICATION_TYPE":"U","CENTER_NAME":"EARTH","APOAPSIS":"548.556","EPHEMERIS_TYPE":"0","INCLINATION":"53.0558","DECAY_DATE":null,"COUNTRY_CODE":"US","TLE_LINE1":"1 48448U 21040W   22339.81506199 -.00001448  00000-0 -78338-4 0  9995","REV_AT_EPOCH":"8728","EPOCH":"2022-12-05T19:33:41.355936","RCS_SIZE":"LARGE","LAUNCH_DATE":"2021-05-09","GP_ID":"219625599","OBJECT_TYPE":"PAYLOAD","SITE":"AFETR","ELEMENT_SET_NO":"999","TIME_SYSTEM":"UTC","FILE":"3682465"},{"RCS_SIZE":"LARGE","LAUNCH_DATE":"2021-05-09","GP_ID":"219626346","OBJECT_TYPE":"PAYLOAD","SITE":"AFETR","ELEMENT_SET_NO":"999","TIME_SYSTEM":"UTC","FILE":"3682465","APOAPSIS":"548.339","INCLINATION":"53.0534","EPHEMERIS_TYPE":"0","DECAY_DATE":null,"TLE_LINE1":"1 48449U 21040X   22339.78651668  .00000668  00000-0  63745-4 0  9991","REV_AT_EPOCH":"8728","COUNTRY_CODE":"US","EPOCH":"2022-12-05T18:52:35.041152","NORAD_CAT_ID":"48449","MEAN_MOTION_DOT":"0.00000668","MEAN_ELEMENT_THEORY":"SGP4","ECCENTRICITY":"0.00016450","TLE_LINE2":"2 48449  53.0534 123.3060 0001645  64.7244 295.3915 15.06404343 87288","RA_OF_ASC_NODE":"123.3060","CLASSIFICATION_TYPE":"U","CENTER_NAME":"EARTH","MEAN_ANOMALY":"295.3915","ARG_OF_PERICENTER":"64.7244","SEMIMAJOR_AXIS":"6925.335","PERIOD":"95.592","MEAN_MOTION_DDOT":"0.0000000000000","REF_FRAME":"TEME","PERIAPSIS":"546.061","OBJECT_NAME":"STARLINK-2655","MEAN_MOTION":"15.06404343","BSTAR":"0.00006374500000","OBJECT_ID":"2021-040X"},{"TIME_SYSTEM":"UTC","SITE":"AFETR","ELEMENT_SET_NO":"999","FILE":"3682465","RCS_SIZE":"LARGE","LAUNCH_DATE":"2021-05-09","OBJECT_TYPE":"PAYLOAD","GP_ID":"219626595","REV_AT_EPOCH":"8728","TLE_LINE1":"1 48450U 21040Y   22339.78283722  .00001232  00000-0  10159-3 0  9993","COUNTRY_CODE":"US","EPOCH":"2022-12-05T18:47:17.135808","APOAPSIS":"548.592","EPHEMERIS_TYPE":"0","INCLINATION":"53.0552","DECAY_DATE":null,"TLE_LINE2":"2 48450  53.0552 123.3224 0001980  64.1992 295.9201 15.06397562 87286","RA_OF_ASC_NODE":"123.3224","CLASSIFICATION_TYPE":"U","CENTER_NAME":"EARTH","MEAN_ELEMENT_THEORY":"SGP4","MEAN_MOTION_DOT":"0.00001232","NORAD_CAT_ID":"48450","ECCENTRICITY":"0.00019800","MEAN_MOTION_DDOT":"0.0000000000000","REF_FRAME":"TEME","PERIAPSIS":"545.850","OBJECT_NAME":"STARLINK-2660","PERIOD":"95.592","OBJECT_ID":"2021-040Y","MEAN_MOTION":"15.06397562","BSTAR":"0.00010159000000","ARG_OF_PERICENTER":"64.1992","MEAN_ANOMALY":"295.9201","SEMIMAJOR_AXIS":"6925.356"},{"REF_FRAME":"TEME","MEAN_MOTION_DDOT":"0.0000000000000","OBJECT_NAME":"STARLINK-2652","PERIAPSIS":"546.333","PERIOD":"95.592","OBJECT_ID":"2021-040Z","MEAN_MOTION":"15.06403477","BSTAR":"0.00010164000000","ARG_OF_PERICENTER":"80.1840","MEAN_ANOMALY":"279.9290","SEMIMAJOR_AXIS":"6925.338","TLE_LINE2":"2 48451  53.0548 123.3626 0001256  80.1840 279.9290 15.06403477 87287","RA_OF_ASC_NODE":"123.3626","CLASSIFICATION_TYPE":"U","CENTER_NAME":"EARTH","MEAN_MOTION_DOT":"0.00001233","MEAN_ELEMENT_THEORY":"SGP4","NORAD_CAT_ID":"48451","ECCENTRICITY":"0.00012560","TLE_LINE1":"1 48451U 21040Z   22339.78189239  .00001233  00000-0  10164-3 0  9999","REV_AT_EPOCH":"8728","COUNTRY_CODE":"US","EPOCH":"2022-12-05T18:45:55.502496","APOAPSIS":"548.073","INCLINATION":"53.0548","EPHEMERIS_TYPE":"0","DECAY_DATE":null,"TIME_SYSTEM":"UTC","ELEMENT_SET_NO":"999","SITE":"AFETR","FILE":"3682465","RCS_SIZE":"LARGE","LAUNCH_DATE":"2021-05-09","OBJECT_TYPE":"PAYLOAD","GP_ID":"219625349"},{"TLE_LINE2":"2 48452  53.0551 123.0162 0001434  74.5850 285.5297 15.06396901 87294","RA_OF_ASC_NODE":"123.0162","CLASSIFICATION_TYPE":"U","CENTER_NAME":"EARTH","MEAN_MOTION_DOT":"-0.00000061","MEAN_ELEMENT_THEORY":"SGP4","NORAD_CAT_ID":"48452","ECCENTRICITY":"0.00014340","REF_FRAME":"TEME","MEAN_MOTION_DDOT":"0.0000000000000","PERIAPSIS":"546.230","OBJECT_NAME":"STARLINK-2703","PERIOD":"95.592","OBJECT_ID":"2021-040AA","MEAN_MOTION":"15.06396901","BSTAR":"0.00001480800000","ARG_OF_PERICENTER":"74.5850","MEAN_ANOMALY":"285.5297","SEMIMAJOR_AXIS":"6925.358","TIME_SYSTEM":"UTC","SITE":"AFETR","ELEMENT_SET_NO":"999","FILE":"3682465","RCS_SIZE":"LARGE","LAUNCH_DATE":"2021-05-09","OBJECT_TYPE":"PAYLOAD","GP_ID":"219625099","REV_AT_EPOCH":"8729","TLE_LINE1":"1 48452U 21040AA  22339.84549473 -.00000061  00000-0  14808-4 0  9996","COUNTRY_CODE":"US","EPOCH":"2022-12-05T20:17:30.744672","APOAPSIS":"548.216","EPHEMERIS_TYPE":"0","INCLINATION":"53.0551","DECAY_DATE":null},{"MEAN_MOTION":"15.06401261","BSTAR":"0.00009691900000","OBJECT_ID":"2021-040AB","PERIOD":"95.592","MEAN_MOTION_DDOT":"0.0000000000000","REF_FRAME":"TEME","OBJECT_NAME":"STARLINK-2620","PERIAPSIS":"545.928","SEMIMAJOR_AXIS":"6925.345","MEAN_ANOMALY":"299.2026","ARG_OF_PERICENTER":"60.9148","CLASSIFICATION_TYPE":"U","CENTER_NAME":"EARTH","TLE_LINE2":"2 48453  53.0549 123.6644 0001851  60.9148 299.2026 15.06401261 87271","RA_OF_ASC_NODE":"123.6644","ECCENTRICITY":"0.00018510","NORAD_CAT_ID":"48453","MEAN_ELEMENT_THEORY":"SGP4","MEAN_MOTION_DOT":"0.00001162","EPOCH":"2022-12-05T17:01:07.523040","COUNTRY_CODE":"US","TLE_LINE1":"1 48453U 21040AB  22339.70911485  .00001162  00000-0  96919-4 0  9993","REV_AT_EPOCH":"8727","EPHEMERIS_TYPE":"0","INCLINATION":"53.0549","DECAY_DATE":null,"APOAPSIS":"548.492","FILE":"3682465","ELEMENT_SET_NO":"999","SITE":"AFETR","TIME_SYSTEM":"UTC","GP_ID":"219625846","OBJECT_TYPE":"PAYLOAD","RCS_SIZE":"LARGE","LAUNCH_DATE":"2021-05-09"}];
